{
  "links" : {
    "next" : "https://api.nasa.gov/neo/rest/v1/feed?start_date=2004-04-23&end_date=2004-04-23&detailed=true&api_key=t0TVs3DtDT2H8Oy2Zy8m2eVrNsAVKAexjcZXUckd",
    "prev" : "https://api.nasa.gov/neo/rest/v1/feed?start_date=2004-04-21&end_date=2004-04-21&detailed=true&api_key=t0TVs3DtDT2H8Oy2Zy8m2eVrNsAVKAexjcZXUckd",
    "self" : "https://api.nasa.gov/neo/rest/v1/feed?start_date=2004-04-22&end_date=2004-04-22&detailed=true&api_key=t0TVs3DtDT2H8Oy2Zy8m2eVrNsAVKAexjcZXUckd"
  },
  "element_count" : 3,
  "near_earth_objects" : {
    "2004-04-22" : [ {
      "links" : {
        "self" : "https://api.nasa.gov/neo/rest/v1/neo/3180179?api_key=t0TVs3DtDT2H8Oy2Zy8m2eVrNsAVKAexjcZXUckd"
      },
      "neo_reference_id" : "3180179",
      "name" : "(2004 HT38)",
      "nasa_jpl_url" : "http://ssd.jpl.nasa.gov/sbdb.cgi?sstr=3180179",
      "absolute_magnitude_h" : 23.6,
      "estimated_diameter" : {
        "kilometers" : {
          "estimated_diameter_min" : 0.0506471459,
          "estimated_diameter_max" : 0.1132504611
        },
        "meters" : {
          "estimated_diameter_min" : 50.6471458835,
          "estimated_diameter_max" : 113.2504610618
        },
        "miles" : {
          "estimated_diameter_min" : 0.0314706677,
          "estimated_diameter_max" : 0.0703705522
        },
        "feet" : {
          "estimated_diameter_min" : 166.1651821003,
          "estimated_diameter_max" : 371.5566426699
        }
      },
      "is_potentially_hazardous_asteroid" : false,
      "close_approach_data" : [ {
        "close_approach_date" : "2004-04-22",
        "epoch_date_close_approach" : 1082617200000,
        "relative_velocity" : {
          "kilometers_per_second" : "8.4953160529",
          "kilometers_per_hour" : "30583.1377905766",
          "miles_per_hour" : "19003.1724788169"
        },
        "miss_distance" : {
          "astronomical" : "0.1007555351",
          "lunar" : "39.1939048767",
          "kilometers" : "15072814",
          "miles" : "9365812"
        },
        "orbiting_body" : "Earth"
      } ],
      "orbital_data" : {
        "orbit_id" : "10",
        "orbit_determination_date" : "2017-04-06 09:12:52",
        "orbit_uncertainty" : "8",
        "minimum_orbit_intersection" : ".0991123",
        "jupiter_tisserand_invariant" : "4.042",
        "epoch_osculation" : "2453121.5",
        "eccentricity" : ".376782080340397",
        "semi_major_axis" : "1.7339569239315",
        "inclination" : "13.11840312440516",
        "ascending_node_longitude" : "40.14983206334449",
        "orbital_period" : "833.9804752222973",
        "perihelion_distance" : "1.080633026911954",
        "perihelion_argument" : "152.0037922291694",
        "aphelion_distance" : "2.387280820951046",
        "perihelion_time" : "2453099.159346548752",
        "mean_anomaly" : "9.643673300991269",
        "mean_motion" : ".4316647819651198",
        "equinox" : "J2000"
      }
    }, {
      "links" : {
        "self" : "https://api.nasa.gov/neo/rest/v1/neo/2434313?api_key=t0TVs3DtDT2H8Oy2Zy8m2eVrNsAVKAexjcZXUckd"
      },
      "neo_reference_id" : "2434313",
      "name" : "434313 (2004 GP)",
      "nasa_jpl_url" : "http://ssd.jpl.nasa.gov/sbdb.cgi?sstr=2434313",
      "absolute_magnitude_h" : 19.4,
      "estimated_diameter" : {
        "kilometers" : {
          "estimated_diameter_min" : 0.3503926411,
          "estimated_diameter_max" : 0.7835017643
        },
        "meters" : {
          "estimated_diameter_min" : 350.3926411083,
          "estimated_diameter_max" : 783.5017643338
        },
        "miles" : {
          "estimated_diameter_min" : 0.2177238258,
          "estimated_diameter_max" : 0.4868452748
        },
        "feet" : {
          "estimated_diameter_min" : 1149.5821926537,
          "estimated_diameter_max" : 2570.543928497
        }
      },
      "is_potentially_hazardous_asteroid" : false,
      "close_approach_data" : [ {
        "close_approach_date" : "2004-04-22",
        "epoch_date_close_approach" : 1082617200000,
        "relative_velocity" : {
          "kilometers_per_second" : "8.7478880364",
          "kilometers_per_hour" : "31492.3969308728",
          "miles_per_hour" : "19568.1507485193"
        },
        "miss_distance" : {
          "astronomical" : "0.2588312781",
          "lunar" : "100.6853713989",
          "kilometers" : "38720612",
          "miles" : "24059872"
        },
        "orbiting_body" : "Earth"
      } ],
      "orbital_data" : {
        "orbit_id" : "29",
        "orbit_determination_date" : "2017-04-06 09:20:50",
        "orbit_uncertainty" : "1",
        "minimum_orbit_intersection" : ".211795",
        "jupiter_tisserand_invariant" : "8.088",
        "epoch_osculation" : "2458000.5",
        "eccentricity" : ".4884624485801813",
        "semi_major_axis" : ".6965904568025297",
        "inclination" : "14.54950709298024",
        "ascending_node_longitude" : "115.6657686773224",
        "orbital_period" : "212.3560837117257",
        "perihelion_distance" : ".356332176615179",
        "perihelion_argument" : "278.6332446268254",
        "aphelion_distance" : "1.03684873698988",
        "perihelion_time" : "2457899.271529126271",
        "mean_anomaly" : "171.6091617323899",
        "mean_motion" : "1.695265771093714",
        "equinox" : "J2000"
      }
    }, {
      "links" : {
        "self" : "https://api.nasa.gov/neo/rest/v1/neo/3638380?api_key=t0TVs3DtDT2H8Oy2Zy8m2eVrNsAVKAexjcZXUckd"
      },
      "neo_reference_id" : "3638380",
      "name" : "(2013 JL22)",
      "nasa_jpl_url" : "http://ssd.jpl.nasa.gov/sbdb.cgi?sstr=3638380",
      "absolute_magnitude_h" : 21.3,
      "estimated_diameter" : {
        "kilometers" : {
          "estimated_diameter_min" : 0.1460679643,
          "estimated_diameter_max" : 0.3266178974
        },
        "meters" : {
          "estimated_diameter_min" : 146.0679642714,
          "estimated_diameter_max" : 326.6178974458
        },
        "miles" : {
          "estimated_diameter_min" : 0.090762397,
          "estimated_diameter_max" : 0.2029508896
        },
        "feet" : {
          "estimated_diameter_min" : 479.2256199,
          "estimated_diameter_max" : 1071.581062656
        }
      },
      "is_potentially_hazardous_asteroid" : true,
      "close_approach_data" : [ {
        "close_approach_date" : "2004-04-22",
        "epoch_date_close_approach" : 1082617200000,
        "relative_velocity" : {
          "kilometers_per_second" : "12.0709611447",
          "kilometers_per_hour" : "43455.4601207692",
          "miles_per_hour" : "27001.5329844857"
        },
        "miss_distance" : {
          "astronomical" : "0.2269926561",
          "lunar" : "88.3001403809",
          "kilometers" : "33957616",
          "miles" : "21100286"
        },
        "orbiting_body" : "Earth"
      } ],
      "orbital_data" : {
        "orbit_id" : "17",
        "orbit_determination_date" : "2017-04-06 08:45:52",
        "orbit_uncertainty" : "0",
        "minimum_orbit_intersection" : ".00234208",
        "jupiter_tisserand_invariant" : "5.150",
        "epoch_osculation" : "2458000.5",
        "eccentricity" : ".594286168127796",
        "semi_major_axis" : "1.187107052243898",
        "inclination" : "3.064725269799423",
        "ascending_node_longitude" : "38.03373167448699",
        "orbital_period" : "472.4254162317752",
        "perihelion_distance" : ".4816257510083887",
        "perihelion_argument" : "68.9930449302551",
        "aphelion_distance" : "1.892588353479408",
        "perihelion_time" : "2457779.696147952713",
        "mean_anomaly" : "168.2580657303697",
        "mean_motion" : ".7620250469830385",
        "equinox" : "J2000"
      }
    } ]
  }
}